{
  "type": "FeatureCollection",
  "features": [
    {
      "type": "Feature",
      "properties": {
        "norad_id": 66575,
        "name": "STARLINK-35810",
        "group": "last-30-days",
        "lat": -0.19182025815381093,
        "lon": -78.69834611207278,
        "alt_km": 414.4597628398078,
        "timestamp": "2025-12-16T03:53:25.815653+00:00",
        "meta_object_name": "STARLINK-35810",
        "meta_object_id": "2025-268U",
        "meta_epoch": "2025-12-15T08:33:59.691168",
        "meta_mean_motion": 15.50607873,
        "meta_eccentricity": 0.00015183,
        "meta_inclination": 42.9995,
        "meta_ra_of_asc_node": 105.8072,
        "meta_arg_of_pericenter": 269.3187,
        "meta_mean_anomaly": 90.7499,
        "meta_ephemeris_type": 0,
        "meta_classification_type": "U",
        "meta_norad_cat_id": 66575,
        "meta_element_set_no": 999,
        "meta_rev_at_epoch": 503,
        "meta_bstar": 0.0013276682,
        "meta_mean_motion_dot": 0.00078411,
        "meta_mean_motion_ddot": 0,
        "tle_line1": "1 66575U 25268U   25349.35694087  .00078411  00000+0  13277-2 0  9999",
        "tle_line2": "2 66575  42.9995 105.8072 0001518 269.3187  90.7499 15.50607873  5031"
      },
      "geometry": {
        "type": "Point",
        "coordinates": [
          -78.69834611207278,
          -0.19182025815381093
        ]
      }
    },
    {
      "type": "Feature",
      "properties": {
        "norad_id": 66576,
        "name": "STARLINK-35814",
        "group": "last-30-days",
        "lat": -1.4372441636066122,
        "lon": -77.36596433978086,
        "alt_km": 414.9633383585069,
        "timestamp": "2025-12-16T03:53:25.815664+00:00",
        "meta_object_name": "STARLINK-35814",
        "meta_object_id": "2025-268V",
        "meta_epoch": "2025-12-15T08:33:29.791584",
        "meta_mean_motion": 15.50573878,
        "meta_eccentricity": 0.00016376,
        "meta_inclination": 42.9998,
        "meta_ra_of_asc_node": 105.8043,
        "meta_arg_of_pericenter": 283.1679,
        "meta_mean_anomaly": 76.8998,
        "meta_ephemeris_type": 0,
        "meta_classification_type": "U",
        "meta_norad_cat_id": 66576,
        "meta_element_set_no": 999,
        "meta_rev_at_epoch": 503,
        "meta_bstar": 0.001279951,
        "meta_mean_motion_dot": 0.00075461,
        "meta_mean_motion_ddot": 0,
        "tle_line1": "1 66576U 25268V   25349.35659481  .00075461  00000+0  12800-2 0  9992",
        "tle_line2": "2 66576  42.9998 105.8043 0001637 283.1679  76.8998 15.50573878  5031"
      },
      "geometry": {
        "type": "Point",
        "coordinates": [
          -77.36596433978086,
          -1.4372441636066122
        ]
      }
    },
    {
      "type": "Feature",
      "properties": {
        "norad_id": 66577,
        "name": "STARLINK-35815",
        "group": "last-30-days",
        "lat": -2.7683180157344958,
        "lon": -75.93962677733377,
        "alt_km": 415.2894595941443,
        "timestamp": "2025-12-16T03:53:25.815674+00:00",
        "meta_object_name": "STARLINK-35815",
        "meta_object_id": "2025-268W",
        "meta_epoch": "2025-12-15T08:33:00.482976",
        "meta_mean_motion": 15.50604868,
        "meta_eccentricity": 0.00012497,
        "meta_inclination": 42.9976,
        "meta_ra_of_asc_node": 105.8011,
        "meta_arg_of_pericenter": 302.8545,
        "meta_mean_anomaly": 57.2194,
        "meta_ephemeris_type": 0,
        "meta_classification_type": "U",
        "meta_norad_cat_id": 66577,
        "meta_element_set_no": 999,
        "meta_rev_at_epoch": 503,
        "meta_bstar": 0.00095342008,
        "meta_mean_motion_dot": 0.00056044,
        "meta_mean_motion_ddot": 0,
        "tle_line1": "1 66577U 25268W   25349.35625559  .00056044  00000+0  95342-3 0  9991",
        "tle_line2": "2 66577  42.9976 105.8011 0001249 302.8545  57.2194 15.50604868  5038"
      },
      "geometry": {
        "type": "Point",
        "coordinates": [
          -75.93962677733377,
          -2.7683180157344958
        ]
      }
    },
    {
      "type": "Feature",
      "properties": {
        "norad_id": 66578,
        "name": "STARLINK-35743",
        "group": "last-30-days",
        "lat": -3.954900896328021,
        "lon": -74.662416873353,
        "alt_km": 415.1081970471341,
        "timestamp": "2025-12-16T03:53:25.815687+00:00",
        "meta_object_name": "STARLINK-35743",
        "meta_object_id": "2025-268X",
        "meta_epoch": "2025-12-15T08:32:31.505280",
        "meta_mean_motion": 15.50562758,
        "meta_eccentricity": 9.771e-05,
        "meta_inclination": 42.9981,
        "meta_ra_of_asc_node": 105.7995,
        "meta_arg_of_pericenter": 270.2559,
        "meta_mean_anomaly": 89.8189,
        "meta_ephemeris_type": 0,
        "meta_classification_type": "U",
        "meta_norad_cat_id": 66578,
        "meta_element_set_no": 999,
        "meta_rev_at_epoch": 503,
        "meta_bstar": 0.00088692092,
        "meta_mean_motion_dot": 0.00052005,
        "meta_mean_motion_ddot": 0,
        "tle_line1": "1 66578U 25268X   25349.35592020  .00052005  00000+0  88692-3 0  9991",
        "tle_line2": "2 66578  42.9981 105.7995 0000977 270.2559  89.8189 15.50562758  5031"
      },
      "geometry": {
        "type": "Point",
        "coordinates": [
          -74.662416873353,
          -3.954900896328021
        ]
      }
    },
    {
      "type": "Feature",
      "properties": {
        "norad_id": 66579,
        "name": "STARLINK-35868",
        "group": "last-30-days",
        "lat": -5.395700254536282,
        "lon": -73.10540968050415,
        "alt_km": 415.5544287344246,
        "timestamp": "2025-12-16T03:53:25.815697+00:00",
        "meta_object_name": "STARLINK-35868",
        "meta_object_id": "2025-268Y",
        "meta_epoch": "2025-12-15T08:32:01.184064",
        "meta_mean_motion": 15.50616977,
        "meta_eccentricity": 0.00010211,
        "meta_inclination": 42.9953,
        "meta_ra_of_asc_node": 105.7958,
        "meta_arg_of_pericenter": 311.2592,
        "meta_mean_anomaly": 48.818,
        "meta_ephemeris_type": 0,
        "meta_classification_type": "U",
        "meta_norad_cat_id": 66579,
        "meta_element_set_no": 999,
        "meta_rev_at_epoch": 503,
        "meta_bstar": 0.00086971084,
        "meta_mean_motion_dot": 0.00051083,
        "meta_mean_motion_ddot": 0,
        "tle_line1": "1 66579U 25268Y   25349.35556926  .00051083  00000+0  86971-3 0  9990",
        "tle_line2": "2 66579  42.9953 105.7958 0001021 311.2592  48.8180 15.50616977  5033"
      },
      "geometry": {
        "type": "Point",
        "coordinates": [
          -73.10540968050415,
          -5.395700254536282
        ]
      }
    },
    {
      "type": "Feature",
      "properties": {
        "norad_id": 66580,
        "name": "STARLINK-35872",
        "group": "last-30-days",
        "lat": -6.8401727523749765,
        "lon": -71.53231404157984,
        "alt_km": 415.4294776473462,
        "timestamp": "2025-12-16T03:53:25.815708+00:00",
        "meta_object_name": "STARLINK-35872",
        "meta_object_id": "2025-268Z",
        "meta_epoch": "2025-12-15T08:31:30.920736",
        "meta_mean_motion": 15.50656168,
        "meta_eccentricity": 0.00010335,
        "meta_inclination": 42.9971,
        "meta_ra_of_asc_node": 105.7929,
        "meta_arg_of_pericenter": 307.8329,
        "meta_mean_anomaly": 52.2438,
        "meta_ephemeris_type": 0,
        "meta_classification_type": "U",
        "meta_norad_cat_id": 66580,
        "meta_element_set_no": 999,
        "meta_rev_at_epoch": 503,
        "meta_bstar": 0.0013234565,
        "meta_mean_motion_dot": 0.00078294,
        "meta_mean_motion_ddot": 0,
        "tle_line1": "1 66580U 25268Z   25349.35521899  .00078294  00000+0  13235-2 0  9998",
        "tle_line2": "2 66580  42.9971 105.7929 0001033 307.8329  52.2438 15.50656168  5036"
      },
      "geometry": {
        "type": "Point",
        "coordinates": [
          -71.53231404157984,
          -6.8401727523749765
        ]
      }
    },
    {
      "type": "Feature",
      "properties": {
        "norad_id": 66581,
        "name": "STARLINK-35744",
        "group": "last-30-days",
        "lat": -8.003140149800878,
        "lon": -70.25398272120542,
        "alt_km": 415.3579265415765,
        "timestamp": "2025-12-16T03:53:25.815718+00:00",
        "meta_object_name": "STARLINK-35744",
        "meta_object_id": "2025-268AA",
        "meta_epoch": "2025-12-15T08:31:01.914528",
        "meta_mean_motion": 15.50620394,
        "meta_eccentricity": 7.511e-05,
        "meta_inclination": 42.997,
        "meta_ra_of_asc_node": 105.7908,
        "meta_arg_of_pericenter": 271.7111,
        "meta_mean_anomaly": 88.3663,
        "meta_ephemeris_type": 0,
        "meta_classification_type": "U",
        "meta_norad_cat_id": 66581,
        "meta_element_set_no": 999,
        "meta_rev_at_epoch": 503,
        "meta_bstar": 0.00095626145,
        "meta_mean_motion_dot": 0.00056244,
        "meta_mean_motion_ddot": 0,
        "tle_line1": "1 66581U 25268AA  25349.35488327  .00056244  00000+0  95626-3 0  9993",
        "tle_line2": "2 66581  42.9970 105.7908 0000751 271.7111  88.3663 15.50620394  5039"
      },
      "geometry": {
        "type": "Point",
        "coordinates": [
          -70.25398272120542,
          -8.003140149800878
        ]
      }
    }
  ]
}